[{"OBJECT_NAME":"STARLINK-5989","OBJECT_ID":"2023-078Q","EPOCH":"2026-03-09T22:12:22.338720","MEAN_MOTION":14.98329872,"ECCENTRICITY":0.00025713,"INCLINATION":70.0007,"RA_OF_ASC_NODE":343.94,"ARG_OF_PERICENTER":272.6629,"MEAN_ANOMALY":87.4236,"EPHEMERIS_TYPE":0,"CLASSIFICATION_TYPE":"U","NORAD_CAT_ID":56781,"ELEMENT_SET_NO":999,"REV_AT_EPOCH":15271,"BSTAR":-2.2868689e-5,"MEAN_MOTION_DOT":-3.66e-6,"MEAN_MOTION_DDOT":0},{"OBJECT_NAME":"ELECTRON KICK STAGE R\/B","OBJECT_ID":"2025-169B","EPOCH":"2026-03-08T18:46:24.954528","MEAN_MOTION":15.00375909,"ECCENTRICITY":0.00087281,"INCLINATION":42.0099,"RA_OF_ASC_NODE":207.6084,"ARG_OF_PERICENTER":269.0782,"MEAN_ANOMALY":90.9044,"EPHEMERIS_TYPE":0,"CLASSIFICATION_TYPE":"U","NORAD_CAT_ID":65117,"ELEMENT_SET_NO":999,"REV_AT_EPOCH":3234,"BSTAR":0.00071792459,"MEAN_MOTION_DOT":8.999e-5,"MEAN_MOTION_DDOT":0}]
